OBJECT_NAME,OBJECT_ID,EPOCH,MEAN_MOTION,ECCENTRICITY,INCLINATION,RA_OF_ASC_NODE,ARG_OF_PERICENTER,MEAN_ANOMALY,EPHEMERIS_TYPE,CLASSIFICATION_TYPE,NORAD_CAT_ID,ELEMENT_SET_NO,REV_AT_EPOCH,BSTAR,MEAN_MOTION_DOT,MEAN_MOTION_DDOT
STARLINK-31354,2024-027M,2026-06-28T15:34:24.219552,15.31701864,.00014368,53.1597,153.7358,90.9227,269.1939,0,U,58942,999,13432,.20557358E-4,.273E-5,0
STARLINK-31346,2024-027N,2026-06-28T22:24:01.467648,15.30857668,.00012476,53.1589,150.5467,88.3911,271.7233,0,U,58943,999,13439,.51158783E-3,.15134E-3,0
STARLINK-31336,2024-027P,2026-06-28T21:57:07.559712,15.30192011,.00012588,53.1595,153.2566,90.3325,269.7820,0,U,58944,999,13434,.15022937E-4,.86E-6,0
STARLINK-31359,2024-027Q,2026-06-28T23:02:55.022784,15.30196574,.00011242,53.1599,114.3413,88.7029,271.4101,0,U,58945,999,13491,.20145136E-4,.238E-5,0
STARLINK-31331,2024-027R,2026-06-29T03:45:55.480032,15.31697861,.0001317,53.1601,151.2180,97.1837,262.9314,0,U,58946,999,13440,.42574E-4,.956E-5,0
STARLINK-31116,2024-027S,2026-06-28T15:20:56.965344,15.31711567,.00011405,53.1587,153.6759,91.5974,268.5158,0,U,58947,999,13432,-.40862367E-4,-.1633E-4,0
STARLINK-31311,2024-027T,2026-06-29T03:25:28.021152,15.30194260,.00013,53.1606,149.7147,100.0769,260.0378,0,U,58948,999,13442,.39139E-4,.8E-5,0
STARLINK-31294,2024-027U,2026-06-28T22:04:43.273056,15.30206208,.00014754,53.1579,153.2886,73.5311,286.5852,0,U,58949,999,13435,.6273205E-5,-.174E-5,0
STARLINK-31330,2024-027W,2026-06-28T22:08:49.017120,15.34390197,.00013171,53.1586,148.3642,80.5313,279.5838,0,U,58951,999,13442,.18218852E-3,.5782E-4,0
STARLINK-31293,2024-027X,2026-06-28T12:20:24.994752,15.31212514,.00029777,53.1596,154.3135,125.2635,234.8645,0,U,58952,999,13430,-.20086341E-2,-.61263E-3,0
HBTSS-SV2,2024-028A,2026-06-29T13:02:19.671072,13.70473742,.0020132,39.9927,347.1306,308.6860,51.2086,0,U,58955,999,11876,.83032E-4,-.3E-7,0
RAPTOR4,2024-028B,2026-06-29T12:25:30.472320,13.71048023,.0015434,39.9919,347.7379,309.6626,50.2759,0,U,58956,999,11874,.35434E-4,-.46E-6,0
RAPTOR1,2024-028C,2026-06-29T12:51:50.078592,13.71846998,.0012416,39.9918,347.0500,320.2677,39.7160,0,U,58957,999,11875,.22471E-4,-.57E-6,0
RAPTOR3,2024-028D,2026-06-28T20:04:53.627520,13.70486839,.00118643,39.9926,349.8404,318.8949,41.0903,0,U,58958,999,11866,.2456727E-4,-.56E-6,0
RAPTOR2,2024-028E,2026-06-29T12:40:35.201280,13.70557393,.0011965,39.9924,346.2449,324.8522,35.1434,0,U,58959,999,11876,.41101E-4,-.41E-6,0
HBTSS-SV1,2024-028F,2026-06-28T17:16:19.871616,14.97918018,.00122596,39.9898,55.3723,277.4040,82.5359,0,U,58960,999,10891,.38237656E-3,.4448E-4,0
STARLINK-31373,2024-031A,2026-06-28T21:30:22.488768,15.30190597,.00015767,53.1611,139.8541,83.4792,276.6388,0,U,58965,999,13356,.61952201E-4,.1475E-4,0
STARLINK-31449,2024-031B,2026-06-29T03:43:33.105792,15.30193383,.0001358,53.1601,138.6254,74.3546,285.7605,0,U,58966,999,13360,.424E-4,.896E-5,0
STARLINK-31314,2024-031C,2026-06-28T04:21:51.868512,15.30199175,.00014043,53.1603,143.2157,88.0187,272.0974,0,U,58967,999,13345,.35182988E-4,.683E-5,0
STARLINK-31356,2024-031D,2026-06-29T12:00:02.998944,15.34405292,.0000801,53.1589,109.3999,95.6640,233.9799,0,U,58968,999,569,-.51062E-3,-.17591E-3,0
STARLINK-31335,2024-031E,2026-06-29T03:28:33.724128,15.34397057,.0001329,53.1594,135.0171,86.2227,273.8927,0,U,58969,999,13365,.26946E-4,.534E-5,0
STARLINK-31368,2024-031F,2026-06-28T20:00:52.536960,15.30195459,.00013808,53.1602,140.1815,87.6638,272.4521,0,U,58970,999,13355,.93192231E-4,.2401E-4,0
STARLINK-31333,2024-031G,2026-06-29T03:24:40.431168,15.30201073,.0001184,53.1604,126.4682,88.7462,271.3675,0,U,58971,999,13377,-.46517E-5,-.497E-5,0
STARLINK-31351,2024-031H,2026-06-28T22:00:46.282176,15.30192738,.00013773,53.1589,139.9804,95.7454,264.3703,0,U,58972,999,13355,.52216048E-4,.1187E-4,0
STARLINK-31365,2024-031J,2026-06-28T20:35:51.274176,15.30203677,.0001739,53.1587,140.3229,101.1425,258.9771,0,U,58973,999,13355,.22916523E-3,.6435E-4,0
STARLINK-31361,2024-031K,2026-06-28T22:05:19.907520,15.30190951,.000166,53.1624,139.9984,95.1339,264.9852,0,U,58974,999,13356,.44818734E-4,.968E-5,0
STARLINK-31369,2024-031L,2026-06-29T12:00:02.998944,15.33558582,.0001257,53.1590,137.3473,88.2330,206.7964,0,U,58975,999,575,-.71656E-3,-.23871E-3,0
STARLINK-31324,2024-031M,2026-06-28T14:28:44.221440,15.30191071,.00014192,53.1607,141.5743,96.3890,263.7273,0,U,58976,999,13349,.13898077E-4,.52E-6,0
STARLINK-31358,2024-031N,2026-06-28T21:31:53.586336,15.30192351,.00014153,53.1603,139.8452,81.3843,278.7318,0,U,58977,999,13354,.39919468E-4,.823E-5,0
STARLINK-31355,2024-031P,2026-06-28T20:49:34.931424,15.29946896,.00015352,53.1594,140.3817,181.5828,178.5168,0,U,58978,999,13353,.17969575E-2,.52824E-3,0
