STARLINK-31354          
1 58942U 24027M   26179.64889143  .00000273  00000+0  20557-4 0  9995
2 58942  53.1597 153.7358 0001436  90.9227 269.1939 15.31701864134323
STARLINK-31346          
1 58943U 24027N   26179.93335032  .00015134  00000+0  51159-3 0  9994
2 58943  53.1589 150.5467 0001247  88.3911 271.7233 15.30857668134398
STARLINK-31336          
1 58944U 24027P   26179.91467083  .00000086  00000+0  15023-4 0  9996
2 58944  53.1595 153.2566 0001258  90.3325 269.7820 15.30192011134348
STARLINK-31359          
1 58945U 24027Q   26179.96035906  .00000238  00000+0  20145-4 0  9997
2 58945  53.1599 114.3413 0001124  88.7029 271.4101 15.30196574134919
STARLINK-31331          
1 58946U 24027R   26180.15689213  .00000956  00000+0  42574-4 0  9994
2 58946  53.1601 151.2180 0001317  97.1837 262.9314 15.31697861134401
STARLINK-31116          
1 58947U 24027S   26179.63954821 -.00001633  00000+0 -40862-4 0  9999
2 58947  53.1587 153.6759 0001140  91.5974 268.5158 15.31711567134326
STARLINK-31311          
1 58948U 24027T   26180.14268543  .00000800  00000+0  39139-4 0  9995
2 58948  53.1606 149.7147 0001300 100.0769 260.0378 15.30194260134428
STARLINK-31294          
1 58949U 24027U   26179.91994529 -.00000174  00000+0  62732-5 0  9990
2 58949  53.1579 153.2886 0001475  73.5311 286.5852 15.30206208134356
STARLINK-31330          
1 58951U 24027W   26179.92278955  .00005782  00000+0  18219-3 0  9990
2 58951  53.1586 148.3642 0001317  80.5313 279.5838 15.34390197134426
STARLINK-31293          
1 58952U 24027X   26179.51417818 -.00061263  00000+0 -20086-2 0  9991
2 58952  53.1596 154.3135 0002977 125.2635 234.8645 15.31212514134309
HBTSS-SV2               
1 58955U 24028A   26180.54328323 -.00000003  00000+0  83032-4 0  9998
2 58955  39.9927 347.1306 0020132 308.6860  51.2086 13.70473742118769
RAPTOR4                 
1 58956U 24028B   26180.51771380 -.00000046  00000+0  35434-4 0  9991
2 58956  39.9919 347.7379 0015434 309.6626  50.2759 13.71048023118742
RAPTOR1                 
1 58957U 24028C   26180.53599628 -.00000057  00000+0  22471-4 0  9996
2 58957  39.9918 347.0500 0012416 320.2677  39.7160 13.71846998118759
RAPTOR3                 
1 58958U 24028D   26179.83673180 -.00000056  00000+0  24567-4 0  9991
2 58958  39.9926 349.8404 0011864 318.8949  41.0903 13.70486839118667
RAPTOR2                 
1 58959U 24028E   26180.52818520 -.00000041  00000+0  41101-4 0  9996
2 58959  39.9924 346.2449 0011965 324.8522  35.1434 13.70557393118760
HBTSS-SV1               
1 58960U 24028F   26179.71967444  .00004448  00000+0  38238-3 0  9997
2 58960  39.9898  55.3723 0012259 277.4040  82.5359 14.97918018108913
STARLINK-31373          
1 58965U 24031A   26179.89609362  .00001475  00000+0  61952-4 0  9994
2 58965  53.1611 139.8541 0001576  83.4792 276.6388 15.30190597133563
STARLINK-31449          
1 58966U 24031B   26180.15524428  .00000896  00000+0  42400-4 0  9998
2 58966  53.1601 138.6254 0001358  74.3546 285.7605 15.30193383133609
STARLINK-31314          
1 58967U 24031C   26179.18185033  .00000683  00000+0  35183-4 0  9999
2 58967  53.1603 143.2157 0001404  88.0187 272.0974 15.30199175133457
STARLINK-31356          
1 58968U 24031D   26180.50003471 -.00017591  00000+0 -51062-3 0  9994
2 58968  53.1589 109.3999 0000801  95.6640 233.9799 15.34405292  5695
STARLINK-31335          
1 58969U 24031E   26180.14483477  .00000534  00000+0  26946-4 0  9994
2 58969  53.1594 135.0171 0001329  86.2227 273.8927 15.34397057133656
STARLINK-31368          
1 58970U 24031F   26179.83394140  .00002401  00000+0  93192-4 0  9990
2 58970  53.1602 140.1815 0001380  87.6638 272.4521 15.30195459133550
STARLINK-31333          
1 58971U 24031G   26180.14213462 -.00000497  00000+0 -46517-5 0  9999
2 58971  53.1604 126.4682 0001184  88.7462 271.3675 15.30201073133773
STARLINK-31351          
1 58972U 24031H   26179.91720234  .00001187  00000+0  52216-4 0  9990
2 58972  53.1589 139.9804 0001377  95.7454 264.3703 15.30192738133551
STARLINK-31365          
1 58973U 24031J   26179.85823234  .00006435  00000+0  22917-3 0  9993
2 58973  53.1587 140.3229 0001739 101.1425 258.9771 15.30203677133558
STARLINK-31361          
1 58974U 24031K   26179.92036930  .00000968  00000+0  44819-4 0  9992
2 58974  53.1624 139.9984 0001660  95.1339 264.9852 15.30190951133560
STARLINK-31369          
1 58975U 24031L   26180.50003471 -.00023871  00000+0 -71656-3 0  9991
2 58975  53.1590 137.3473 0001257  88.2330 206.7964 15.33558582  5752
STARLINK-31324          
1 58976U 24031M   26179.60328960  .00000052  00000+0  13898-4 0  9993
2 58976  53.1607 141.5743 0001419  96.3890 263.7273 15.30191071133492
STARLINK-31358          
1 58977U 24031N   26179.89714799  .00000823  00000+0  39919-4 0  9992
2 58977  53.1603 139.8452 0001415  81.3843 278.7318 15.30192351133548
STARLINK-31355          
1 58978U 24031P   26179.86776541  .00052824  00000+0  17970-2 0  9992
2 58978  53.1594 140.3817 0001535 181.5828 178.5168 15.29946896133537
